[
    {
        "Altitude(m)": 558590.5002494643,
        "Argument of Periapsis(deg)": 0.026491964442854003,
        "Eccentricity": 0.0,
        "Inclination(deg)": 53.0,
        "Latitude(deg)": 47.40869374026787,
        "Longitude(deg)": 77.20438626232306,
        "Mean Anomaly(deg)": 113.09367147031034,
        "RAAN(deg)": 54.96057347411207,
        "Satellite Name": "Starlink Shell 1 246",
        "Satellite Number": 246,
        "Semi-Major Axis(m)": 6931778.249405717,
        "Time(s)": 760
    },
    {
        "Altitude(m)": 558523.6877209784,
        "Argument of Periapsis(deg)": 0.02684054292236524,
        "Eccentricity": 0.0,
        "Inclination(deg)": 53.0,
        "Latitude(deg)": 47.11549696849433,
        "Longitude(deg)": 77.97778313875591,
        "Mean Anomaly(deg)": 113.72050267386705,
        "RAAN(deg)": 54.9600547040346,
        "Satellite Name": "Starlink Shell 1 246",
        "Satellite Number": 246,
        "Semi-Major Axis(m)": 6931778.249405717,
        "Time(s)": 770
    },
    {
        "Altitude(m)": 558455.6446206202,
        "Argument of Periapsis(deg)": 0.027189121401876473,
        "Eccentricity": 0.0,
        "Inclination(deg)": 53.0,
        "Latitude(deg)": 46.816555919440454,
        "Longitude(deg)": 78.74220066445879,
        "Mean Anomaly(deg)": 114.34733387742378,
        "RAAN(deg)": 54.95953593395713,
        "Satellite Name": "Starlink Shell 1 246",
        "Satellite Number": 246,
        "Semi-Major Axis(m)": 6931778.249405717,
        "Time(s)": 780
    },
    {
        "Altitude(m)": 558386.4130305937,
        "Argument of Periapsis(deg)": 0.02753769988138771,
        "Eccentricity": 0.0,
        "Inclination(deg)": 53.0,
        "Latitude(deg)": 46.51199183071656,
        "Longitude(deg)": 79.49766262668814,
        "Mean Anomaly(deg)": 114.97416508098048,
        "RAAN(deg)": 54.95901716387965,
        "Satellite Name": "Starlink Shell 1 246",
        "Satellite Number": 246,
        "Semi-Major Axis(m)": 6931778.249405717,
        "Time(s)": 790
    },
    {
        "Altitude(m)": 558316.0358410849,
        "Argument of Periapsis(deg)": 0.02788627836089895,
        "Eccentricity": 0.0,
        "Inclination(deg)": 53.0,
        "Latitude(deg)": 46.20192487470421,
        "Longitude(deg)": 80.24420142286962,
        "Mean Anomaly(deg)": 115.60099628453722,
        "RAAN(deg)": 54.95849839380218,
        "Satellite Name": "Starlink Shell 1 246",
        "Satellite Number": 246,
        "Semi-Major Axis(m)": 6931778.249405717,
        "Time(s)": 800
    },
    {
        "Altitude(m)": 558244.5567289612,
        "Argument of Periapsis(deg)": 0.02823485684041019,
        "Eccentricity": 0.0,
        "Inclination(deg)": 53.0,
        "Latitude(deg)": 45.886474046651784,
        "Longitude(deg)": 80.98185801597984,
        "Mean Anomaly(deg)": 116.22782748809391,
        "RAAN(deg)": 54.95797962372471,
        "Satellite Name": "Starlink Shell 1 246",
        "Satellite Number": 246,
        "Semi-Major Axis(m)": 6931778.249405717,
        "Time(s)": 810
    },
    {
        "Altitude(m)": 558172.0201360665,
        "Argument of Periapsis(deg)": 0.028583435319921423,
        "Eccentricity": 0.0,
        "Inclination(deg)": 53.0,
        "Latitude(deg)": 45.565757062886256,
        "Longitude(deg)": 81.71068189837001,
        "Mean Anomaly(deg)": 116.85465869165063,
        "RAAN(deg)": 54.95746085364723,
        "Satellite Name": "Starlink Shell 1 246",
        "Satellite Number": 246,
        "Semi-Major Axis(m)": 6931778.249405717,
        "Time(s)": 820
    },
    {
        "Altitude(m)": 558098.4712471176,
        "Argument of Periapsis(deg)": 0.028932013799432665,
        "Eccentricity": 0.0,
        "Inclination(deg)": 53.0,
        "Latitude(deg)": 45.23989026879672,
        "Longitude(deg)": 82.43072955321483,
        "Mean Anomaly(deg)": 117.48148989520733,
        "RAAN(deg)": 54.956942083569764,
        "Satellite Name": "Starlink Shell 1 246",
        "Satellite Number": 246,
        "Semi-Major Axis(m)": 6931778.249405717,
        "Time(s)": 830
    },
    {
        "Altitude(m)": 558023.9559671789,
        "Argument of Periapsis(deg)": 0.029280592278943897,
        "Eccentricity": 0.0,
        "Inclination(deg)": 53.0,
        "Latitude(deg)": 44.90898855621916,
        "Longitude(deg)": 83.14206444113005,
        "Mean Anomaly(deg)": 118.10832109876407,
        "RAAN(deg)": 54.95642331349229,
        "Satellite Name": "Starlink Shell 1 246",
        "Satellite Number": 246,
        "Semi-Major Axis(m)": 6931778.249405717,
        "Time(s)": 840
    },
    {
        "Altitude(m)": 557948.5208988074,
        "Argument of Periapsis(deg)": 0.029629170758455132,
        "Eccentricity": 0.0,
        "Inclination(deg)": 53.0,
        "Latitude(deg)": 44.57316528983014,
        "Longitude(deg)": 83.84475700061678,
        "Mean Anomaly(deg)": 118.7351523023208,
        "RAAN(deg)": 54.95590454341481,
        "Satellite Name": "Starlink Shell 1 246",
        "Satellite Number": 246,
        "Semi-Major Axis(m)": 6931778.249405717,
        "Time(s)": 850
    },
    {
        "Altitude(m)": 557872.2133187768,
        "Argument of Periapsis(deg)": 0.02997774923796637,
        "Eccentricity": 0.0,
        "Inclination(deg)": 53.0,
        "Latitude(deg)": 44.23253224214123,
        "Longitude(deg)": 84.53888298264897,
        "Mean Anomaly(deg)": 119.36198350587748,
        "RAAN(deg)": 54.95538577333734,
        "Satellite Name": "Starlink Shell 1 246",
        "Satellite Number": 246,
        "Semi-Major Axis(m)": 6931778.249405717,
        "Time(s)": 860
    },
    {
        "Altitude(m)": 557795.0811544668,
        "Argument of Periapsis(deg)": 0.030326327717477602,
        "Eccentricity": 0.0,
        "Inclination(deg)": 53.0,
        "Latitude(deg)": 43.88719953667716,
        "Longitude(deg)": 85.22452432290348,
        "Mean Anomaly(deg)": 119.98881470943421,
        "RAAN(deg)": 54.95486700325987,
        "Satellite Name": "Starlink Shell 1 246",
        "Satellite Number": 246,
        "Semi-Major Axis(m)": 6931778.249405717,
        "Time(s)": 870
    },
    {
        "Altitude(m)": 557717.1729598949,
        "Argument of Periapsis(deg)": 0.030674906196988847,
        "Eccentricity": 0.0,
        "Inclination(deg)": 53.0,
        "Latitude(deg)": 43.53727559891031,
        "Longitude(deg)": 85.90176750956378,
        "Mean Anomaly(deg)": 120.61564591299091,
        "RAAN(deg)": 54.954348233182394,
        "Satellite Name": "Starlink Shell 1 246",
        "Satellite Number": 246,
        "Semi-Major Axis(m)": 6931778.249405717,
        "Time(s)": 880
    },
    {
        "Altitude(m)": 557638.5378913921,
        "Argument of Periapsis(deg)": 0.031023484676500086,
        "Eccentricity": 0.0,
        "Inclination(deg)": 53.0,
        "Latitude(deg)": 43.18286711452597,
        "Longitude(deg)": 86.5707036497896,
        "Mean Anomaly(deg)": 121.24247711654766,
        "RAAN(deg)": 54.953829463104924,
        "Satellite Name": "Starlink Shell 1 246",
        "Satellite Number": 246,
        "Semi-Major Axis(m)": 6931778.249405717,
        "Time(s)": 890
    },
    {
        "Altitude(m)": 557559.225682986,
        "Argument of Periapsis(deg)": 0.03137206315601132,
        "Eccentricity": 0.0,
        "Inclination(deg)": 53.0,
        "Latitude(deg)": 42.824078994589314,
        "Longitude(deg)": 87.2314285543584,
        "Mean Anomaly(deg)": 121.86930832010438,
        "RAAN(deg)": 54.953310693027454,
        "Satellite Name": "Starlink Shell 1 246",
        "Satellite Number": 246,
        "Semi-Major Axis(m)": 6931778.249405717,
        "Time(s)": 900
    },
    {
        "Altitude(m)": 557479.2866214301,
        "Argument of Periapsis(deg)": 0.03172064163552255,
        "Eccentricity": 0.0,
        "Inclination(deg)": 53.0,
        "Latitude(deg)": 42.46101434719104,
        "Longitude(deg)": 87.88404132791952,
        "Mean Anomaly(deg)": 122.49613952366106,
        "RAAN(deg)": 54.95279192294998,
        "Satellite Name": "Starlink Shell 1 246",
        "Satellite Number": 246,
        "Semi-Major Axis(m)": 6931778.249405717,
        "Time(s)": 910
    },
    {
        "Altitude(m)": 557398.771520929,
        "Argument of Periapsis(deg)": 0.0320692201150338,
        "Eccentricity": 0.0,
        "Inclination(deg)": 53.0,
        "Latitude(deg)": 42.093774455154794,
        "Longitude(deg)": 88.5286444907842,
        "Mean Anomaly(deg)": 123.1229707272178,
        "RAAN(deg)": 54.95227315287251,
        "Satellite Name": "Starlink Shell 1 246",
        "Satellite Number": 246,
        "Semi-Major Axis(m)": 6931778.249405717,
        "Time(s)": 920
    },
    {
        "Altitude(m)": 557317.7316976016,
        "Argument of Periapsis(deg)": 0.032417798594545036,
        "Eccentricity": 0.0,
        "Inclination(deg)": 53.0,
        "Latitude(deg)": 41.72245875939787,
        "Longitude(deg)": 89.16534411941457,
        "Mean Anomaly(deg)": 123.7498019307745,
        "RAAN(deg)": 54.95175438279502,
        "Satellite Name": "Starlink Shell 1 246",
        "Satellite Number": 246,
        "Semi-Major Axis(m)": 6931778.249405717,
        "Time(s)": 930
    },
    {
        "Altitude(m)": 557236.2189436085,
        "Argument of Periapsis(deg)": 0.03276637707405627,
        "Eccentricity": 0.0,
        "Inclination(deg)": 53.0,
        "Latitude(deg)": 41.34716484754535,
        "Longitude(deg)": 89.79424849266026,
        "Mean Anomaly(deg)": 124.3766331343312,
        "RAAN(deg)": 54.95123561271756,
        "Satellite Name": "Starlink Shell 1 246",
        "Satellite Number": 246,
        "Semi-Major Axis(m)": 6931778.249405717,
        "Time(s)": 940
    }
]